ECHOSTAR 19             
1 41893U 16079A   26062.63855433 -.00000153  00000+0  00000+0 0  9999
2 41893   0.0147 118.4390 0001468 222.8050 312.9260  1.00271159 33648
JCSAT-110A (JCSAT-15)   
1 41903U 16082A   26062.60184000 -.00000365  00000+0  00000+0 0  9992
2 41903   0.0032 163.7197 0000779 193.8780 130.4782  1.00270304 33702
STAR ONE D1             
1 41904U 16082B   26062.56982729 -.00000225  00000+0  00000+0 0  9997
2 41904   0.0188 102.1961 0002165 244.6353 295.6287  1.00271426 33714
TJS-2                   
1 41911U 17001A   26062.76627548 -.00000020  00000+0  00000+0 0  9997
2 41911   0.5611  86.9667 0001834 247.5223 169.4161  1.00271581 33665
SBIRS GEO-4 (USA 273)   
1 41937U 17004A   26062.59062742  .00000110  00000+0  00000+0 0  9997
2 41937   2.0476  40.0392 0002420 302.1281  52.6955  1.00272038 33537
HISPASAT 36W-1          
1 41942U 17006A   26062.79334183 -.00000258  00000+0  00000+0 0  9992
2 41942   0.0020  69.2950 0000993 265.1941  76.6606  1.00272651 33184
TELKOM 3S               
1 41944U 17007A   26062.75252161 -.00000376  00000+0  00000+0 0  9997
2 41944   0.0060 145.9922 0002388 195.8961 208.5177  1.00270838 33085
INTELSAT 32E (IS-32E)   
1 41945U 17007B   26062.79186848 -.00000283  00000+0  00000+0 0  9997
2 41945   0.0185 128.1858 0000432 134.6982 140.5442  1.00269682 33161
ECHOSTAR 23             
1 42070U 17014A   26062.63604098 -.00000071  00000+0  00000+0 0  9995
2 42070   0.0080 101.3021 0001966 244.0813 295.0734  1.00270240 32860
WGS F9 (USA 275)        
1 42075U 17016A   26062.65545443  .00000000  00000+0  00000+0 0  9993
2 42075   0.0244 153.3091 0000653 102.8975 129.2218  1.00270075 32831
SES-10                  
1 42432U 17017A   26062.78718846 -.00000286  00000+0  00000+0 0  9991
2 42432   0.0201  73.7877 0002704 274.5432  29.6851  1.00269540 32697
CHINASAT 16 (SJ-13)     
1 42662U 17018A   26061.94880537 -.00000368  00000+0  00000+0 0  9992
2 42662   0.0417  96.3992 0005700 163.5759 352.8060  1.00270523 32683
KOREASAT 7              
1 42691U 17023A   26062.63100262 -.00000376  00000+0  00000+0 0  9996
2 42691   0.0310  25.1286 0001764 344.4412 134.8703  1.00271821 32319
SGDC                    
1 42692U 17023B   26062.75918707 -.00000263  00000+0  00000+0 0  9996
2 42692   0.0219 116.8262 0002751 238.4849   4.6519  1.00271718 32340
GSAT-9                  
1 42695U 17024A   26062.75878156 -.00000300  00000+0  00000+0 0  9995
2 42695   0.1064 281.4934 0002032  63.8531 186.6550  1.00271483 32241
INMARSAT 5-F4           
1 42698U 17025A   26062.33794814  .00000061  00000+0  00000+0 0  9994
2 42698   0.0210 128.7567 0000178 177.2054  33.2811  1.00269613 32216
SES-15                  
1 42709U 17026A   26062.70355468  .00000046  00000+0  00000+0 0  9990
2 42709   0.0468 313.0615 0000684  28.7701 303.7327  1.00270029  6376
